{
"type": "FeatureCollection",
"name": "bibliotecas",
"crs": { "type": "name", "properties": { "name": "urn:ogc:def:crs:OGC:1.3:CRS84" } },
"features": [
{ "type": "Feature", "properties": { "name": "Biblioteca Municipal Laguna de los Padres", "layer": "Biblioteca Municipal Laguna de los Padres Biblioteca Municipal Laguna de los Padres.kmz" }, "geometry": { "type": "Point", "coordinates": [ -57.719937500789598, -37.939937500107327, 0.0 ] } },
{ "type": "Feature", "properties": { "name": "Biblioteca Pública Municipal Sierra de Los Padres", "layer": "Biblioteca Pública Municipal Sierra de Los Padres Biblioteca Pública Municipal Sierra de Los Padres.kmz" }, "geometry": { "type": "Point", "coordinates": [ -57.747190625592147, -37.918060596638917, 0.0 ] } }
]
}
