{
"type": "FeatureCollection",
"name": "clubes",
"crs": { "type": "name", "properties": { "name": "urn:ogc:def:crs:OGC:1.3:CRS84" } },
"features": [
{ "type": "Feature", "properties": { "layer": "Club De Remo Atlantis Club De Remo Atlantis.kmz" }, "geometry": { "type": "Point", "coordinates": [ -57.726562497976893, -37.943062497102048 ] } },
{ "type": "Feature", "properties": { "layer": "Club Obras Sanitarias Club Obras Sanitarias.kmz" }, "geometry": { "type": "Point", "coordinates": [ -57.747562498782031, -37.912437498528412 ] } },
{ "type": "Feature", "properties": { "layer": "Club Social Y Deportivo Laguna De Los Padres Club Social Y Deportivo Laguna De Los Padres.kmz" }, "geometry": { "type": "Point", "coordinates": [ -57.705937499453128, -37.929687498316447 ] } },
{ "type": "Feature", "properties": { "layer": "Comercial Rugby Club Comercial Rugby Club.kmz" }, "geometry": { "type": "Point", "coordinates": [ -57.752937497961049, -37.911687498026602 ] } },
{ "type": "Feature", "properties": { "layer": "Los Almendros Tenis Club Los Almendros Tenis Club.kmz" }, "geometry": { "type": "Point", "coordinates": [ -57.757687500359587, -37.918562498865519 ] } },
{ "type": "Feature", "properties": { "layer": "Sierra de los Padres Golf Club Sierra de los Padres Golf Club.kmz" }, "geometry": { "type": "Point", "coordinates": [ -57.78683510058999, -37.947739298795398 ] } }
]
}
