{
"type": "FeatureCollection",
"name": "criaderos",
"crs": { "type": "name", "properties": { "name": "urn:ogc:def:crs:OGC:1.3:CRS84" } },
"features": [
{ "type": "Feature", "properties": { "Uso del suelo": "criadero" }, "geometry": { "type": "Point", "coordinates": [ -57.803318605290528, -37.896403447174727 ] } },
{ "type": "Feature", "properties": { "Uso del suelo": "criadero" }, "geometry": { "type": "Point", "coordinates": [ -57.793573423150917, -37.900509843316776 ] } },
{ "type": "Feature", "properties": { "Uso del suelo": "criadero" }, "geometry": { "type": "Point", "coordinates": [ -57.793318932055172, -37.900551961788821 ] } },
{ "type": "Feature", "properties": { "Uso del suelo": "criadero" }, "geometry": { "type": "Point", "coordinates": [ -57.793128605513985, -37.900634050237315 ] } },
{ "type": "Feature", "properties": { "Uso del suelo": "criadero" }, "geometry": { "type": "Point", "coordinates": [ -57.7928865349026, -37.900645781915941 ] } },
{ "type": "Feature", "properties": { "Uso del suelo": "criadero" }, "geometry": { "type": "Point", "coordinates": [ -57.792696099292051, -37.900717769680362 ] } },
{ "type": "Feature", "properties": { "Uso del suelo": "criadero" }, "geometry": { "type": "Point", "coordinates": [ -57.793187675486294, -37.900199321153742 ] } },
{ "type": "Feature", "properties": { "Uso del suelo": "criadero" }, "geometry": { "type": "Point", "coordinates": [ -57.793135173217124, -37.90005826484893 ] } },
{ "type": "Feature", "properties": { "Uso del suelo": "criadero" }, "geometry": { "type": "Point", "coordinates": [ -57.793006194325116, -37.89991772380057 ] } },
{ "type": "Feature", "properties": { "Uso del suelo": "criadero" }, "geometry": { "type": "Point", "coordinates": [ -57.79291491245371, -37.89972642504457 ] } },
{ "type": "Feature", "properties": { "Uso del suelo": "criadero" }, "geometry": { "type": "Point", "coordinates": [ -57.792785934566695, -37.899585883735838 ] } },
{ "type": "Feature", "properties": { "Uso del suelo": "criadero" }, "geometry": { "type": "Point", "coordinates": [ -57.792641431001151, -37.900374713319167 ] } },
{ "type": "Feature", "properties": { "Uso del suelo": "criadero" }, "geometry": { "type": "Point", "coordinates": [ -57.792500139513919, -37.900274657527639 ] } },
{ "type": "Feature", "properties": { "Uso del suelo": "criadero" }, "geometry": { "type": "Point", "coordinates": [ -57.792383582734345, -37.900103729989922 ] } },
{ "type": "Feature", "properties": { "Uso del suelo": "criadero" }, "geometry": { "type": "Point", "coordinates": [ -57.792267351324426, -37.899963102307751 ] } },
{ "type": "Feature", "properties": { "Uso del suelo": "criadero" }, "geometry": { "type": "Point", "coordinates": [ -57.792201455262706, -37.899761531389096 ] } },
{ "type": "Feature", "properties": { "Uso del suelo": "criadero" }, "geometry": { "type": "Point", "coordinates": [ -57.792033915660539, -37.899590946618545 ] } },
{ "type": "Feature", "properties": { "Uso del suelo": "criadero" }, "geometry": { "type": "Point", "coordinates": [ -57.792261179723212, -37.899387402623873 ] } },
{ "type": "Feature", "properties": { "Uso del suelo": "criadero" }, "geometry": { "type": "Point", "coordinates": [ -57.792310648016063, -37.899245659503144 ] } },
{ "type": "Feature", "properties": { "Uso del suelo": "criadero" }, "geometry": { "type": "Point", "coordinates": [ -57.792410558665161, -37.899053073152679 ] } },
{ "type": "Feature", "properties": { "Uso del suelo": "criadero" }, "geometry": { "type": "Point", "coordinates": [ -57.792727691736957, -37.89890952753278 ] } },
{ "type": "Feature", "properties": { "Uso del suelo": "criadero" }, "geometry": { "type": "Point", "coordinates": [ -57.792732675160671, -37.899374127267443 ] } },
{ "type": "Feature", "properties": { "Uso del suelo": "criadero" }, "geometry": { "type": "Point", "coordinates": [ -57.796427349525644, -37.903924810205091 ] } },
{ "type": "Feature", "properties": { "Uso del suelo": "criadero" }, "geometry": { "type": "Point", "coordinates": [ -57.779655353968337, -37.918804346968209 ] } },
{ "type": "Feature", "properties": { "Uso del suelo": "criadero" }, "geometry": { "type": "Point", "coordinates": [ -57.778846206747325, -37.919456149583553 ] } },
{ "type": "Feature", "properties": { "Uso del suelo": "criadero" }, "geometry": { "type": "Point", "coordinates": [ -57.778125846721601, -37.918854872991822 ] } },
{ "type": "Feature", "properties": { "Uso del suelo": "criadero" }, "geometry": { "type": "Point", "coordinates": [ -57.772722556577598, -37.933748591049749 ] } },
{ "type": "Feature", "properties": { "Uso del suelo": "criadero" }, "geometry": { "type": "Point", "coordinates": [ -57.772530113214032, -37.933638747224329 ] } },
{ "type": "Feature", "properties": { "Uso del suelo": "criadero" }, "geometry": { "type": "Point", "coordinates": [ -57.772375715059297, -37.933508451997646 ] } },
{ "type": "Feature", "properties": { "Uso del suelo": "criadero" }, "geometry": { "type": "Point", "coordinates": [ -57.772221528775546, -37.933398356529253 ] } },
{ "type": "Feature", "properties": { "Uso del suelo": "criadero" }, "geometry": { "type": "Point", "coordinates": [ -57.772163368611487, -37.933934074133333 ] } },
{ "type": "Feature", "properties": { "Uso del suelo": "criadero" }, "geometry": { "type": "Point", "coordinates": [ -57.771945527093173, -37.933834496698942 ] } },
{ "type": "Feature", "properties": { "Uso del suelo": "criadero" }, "geometry": { "type": "Point", "coordinates": [ -57.771778483110545, -37.93371438432964 ] } },
{ "type": "Feature", "properties": { "Uso del suelo": "criadero" }, "geometry": { "type": "Point", "coordinates": [ -57.771611017351148, -37.933553871770897 ] } },
{ "type": "Feature", "properties": { "Uso del suelo": "criadero" }, "geometry": { "type": "Point", "coordinates": [ -57.766608763142116, -37.905001571966018 ] } },
{ "type": "Feature", "properties": { "Uso del suelo": "criadero" }, "geometry": { "type": "Point", "coordinates": [ -57.761055826643315, -37.900552882791011 ] } },
{ "type": "Feature", "properties": { "Uso del suelo": "criadero" }, "geometry": { "type": "Point", "coordinates": [ -57.747774764856175, -37.907001476775875 ] } },
{ "type": "Feature", "properties": { "Uso del suelo": "criadero" }, "geometry": { "type": "Point", "coordinates": [ -57.747394792025133, -37.907246308019019 ] } },
{ "type": "Feature", "properties": { "Uso del suelo": "criadero" }, "geometry": { "type": "Point", "coordinates": [ -57.747090995774343, -37.907460352301023 ] } },
{ "type": "Feature", "properties": { "Uso del suelo": "criadero" }, "geometry": { "type": "Point", "coordinates": [ -57.746749643978703, -37.90774281405951 ] } },
{ "type": "Feature", "properties": { "Uso del suelo": "criadero" }, "geometry": { "type": "Point", "coordinates": [ -57.746417697272904, -37.908010064074013 ] } },
{ "type": "Feature", "properties": { "Uso del suelo": "criadero" }, "geometry": { "type": "Point", "coordinates": [ -57.739586962514544, -37.900932160870546 ] } },
{ "type": "Feature", "properties": { "Uso del suelo": "criadero" }, "geometry": { "type": "Point", "coordinates": [ -57.738662553501086, -37.900271316178973 ] } },
{ "type": "Feature", "properties": { "Uso del suelo": "criadero" }, "geometry": { "type": "Point", "coordinates": [ -57.73759915811867, -37.908671705739607 ] } },
{ "type": "Feature", "properties": { "Uso del suelo": "criadero" }, "geometry": { "type": "Point", "coordinates": [ -57.740308116013495, -37.919472578181157 ] } },
{ "type": "Feature", "properties": { "Uso del suelo": "criadero" }, "geometry": { "type": "Point", "coordinates": [ -57.708021726624999, -37.951155170936694 ] } },
{ "type": "Feature", "properties": { "Uso del suelo": "criadero" }, "geometry": { "type": "Point", "coordinates": [ -57.701736906095377, -37.930102552401898 ] } }
]
}
