{
"type": "FeatureCollection",
"name": "establecimientoseducativos",
"crs": { "type": "name", "properties": { "name": "urn:ogc:def:crs:OGC:1.3:CRS84" } },
"features": [
{ "type": "Feature", "properties": { "name": "Escuela Agropecuaria Nº 1" }, "geometry": { "type": "Point", "coordinates": [ -57.747562498140177, -37.932696058063009, 0.0 ] } },
{ "type": "Feature", "properties": { "name": "Escuela De Educación Primaria Nº46 \"Guillermo Hudson\"" }, "geometry": { "type": "Point", "coordinates": [ -57.784437499233263, -37.903812500513027, 0.0 ] } },
{ "type": "Feature", "properties": { "name": "Escuela De Educación Primaria Nº48 \"Martín Fierro\"" }, "geometry": { "type": "Point", "coordinates": [ -57.707728350328168, -37.930693522848998, 0.0 ] } },
{ "type": "Feature", "properties": { "name": "Escuela de Educacion Secundaria N° 13" }, "geometry": { "type": "Point", "coordinates": [ -57.774674051364492, -37.94055865812922, 0.0 ] } },
{ "type": "Feature", "properties": { "name": "Jardín de Infantes N° 7 María Elena Walsh" }, "geometry": { "type": "Point", "coordinates": [ -57.774437500441707, -37.941062498634892, 0.0 ] } },
{ "type": "Feature", "properties": { "name": "Escuela Secundaria 50" }, "geometry": { "type": "Point", "coordinates": [ -57.784347942399172, -37.904438098746148, 0.0 ] } },
{ "type": "Feature", "properties": { "name": "E.P. N°49 Vicente Lopez y Planes" }, "geometry": { "type": "Point", "coordinates": [ -57.77543732421416, -37.940796283247231, 0.0 ] } }
]
}
