{
"type": "FeatureCollection",
"name": "iglesias",
"crs": { "type": "name", "properties": { "name": "urn:ogc:def:crs:OGC:1.3:CRS84" } },
"features": [
{ "type": "Feature", "properties": { "name": "Capilla Nuestra Señora La Peregrina" }, "geometry": { "type": "Point", "coordinates": [ -57.784687502432263, -37.90706250231073, 0.0 ] } },
{ "type": "Feature", "properties": { "name": "Capilla Santa Paula" }, "geometry": { "type": "Point", "coordinates": [ -57.682687500161329, -37.929562499675733, 0.0 ] } },
{ "type": "Feature", "properties": { "name": "Parroquia Nuestra Señora del Pilar" }, "geometry": { "type": "Point", "coordinates": [ -57.772062500929962, -37.953187500721931, 0.0 ] } },
{ "type": "Feature", "properties": { "name": "Iglesia Evangelica" }, "geometry": { "type": "Point", "coordinates": [ -57.776445854091229, -37.911019387716429, 0.0 ] } },
{ "type": "Feature", "properties": { "name": "Iglesia Asamblea de Dios" }, "geometry": { "type": "Point", "coordinates": [ -57.783087299461272, -37.912252774939013, 0.0 ] } },
{ "type": "Feature", "properties": { "name": "Iglesia Jesucristo Es La Respuesta" }, "geometry": { "type": "Point", "coordinates": [ -57.772292535607633, -37.895075542146699, 0.0 ] } }
]
}
